1 27424U 02022A   12007.30989338  .00000642  00000-0  15251-3 0  1764
2 27424 098.2181 310.0545 0001202 086.9875 273.1465 14.57106049514797